{"fetched_at":"2026-07-21T07:07:21.178Z","source":"https://celestrak.org/NORAD/elements/gp.php?NAME=WORLDVIEW&FORMAT=JSON","constellation":"worldview","records":[{"OBJECT_NAME":"WORLDVIEW-1 (WV-1)","OBJECT_ID":"2007-041A","EPOCH":"2026-07-20T21:35:25.441728","CLASSIFICATION_TYPE":"U","MEAN_MOTION":15.24596982,"ECCENTRICITY":0.0002091,"INCLINATION":97.3904,"RA_OF_ASC_NODE":321.1729,"ARG_OF_PERICENTER":183.2525,"MEAN_ANOMALY":176.8699,"EPHEMERIS_TYPE":0,"NORAD_CAT_ID":32060,"ELEMENT_SET_NO":999,"REV_AT_EPOCH":4801,"BSTAR":0.000166017,"MEAN_MOTION_DOT":0.00004021,"MEAN_MOTION_DDOT":0},{"OBJECT_NAME":"WORLDVIEW-2 (WV-2)","OBJECT_ID":"2009-055A","EPOCH":"2026-07-20T21:54:37.177056","CLASSIFICATION_TYPE":"U","MEAN_MOTION":14.37908005,"ECCENTRICITY":0.00054921,"INCLINATION":98.4751,"RA_OF_ASC_NODE":274.9033,"ARG_OF_PERICENTER":116.2687,"MEAN_ANOMALY":243.9065,"EPHEMERIS_TYPE":0,"NORAD_CAT_ID":35946,"ELEMENT_SET_NO":999,"REV_AT_EPOCH":88049,"BSTAR":0.00003344486,"MEAN_MOTION_DOT":5.7e-7,"MEAN_MOTION_DDOT":0},{"OBJECT_NAME":"WORLDVIEW-3 (WV-3)","OBJECT_ID":"2014-048A","EPOCH":"2026-07-20T22:11:01.213440","CLASSIFICATION_TYPE":"U","MEAN_MOTION":14.85069654,"ECCENTRICITY":0.00017153,"INCLINATION":97.8551,"RA_OF_ASC_NODE":276.2898,"ARG_OF_PERICENTER":147.4126,"MEAN_ANOMALY":212.7195,"EPHEMERIS_TYPE":0,"NORAD_CAT_ID":40115,"ELEMENT_SET_NO":999,"REV_AT_EPOCH":64691,"BSTAR":0.000062400673,"MEAN_MOTION_DOT":0.0000048,"MEAN_MOTION_DDOT":0}]}
